HST                     
1 20580U 90037B   26197.21735952  .00003185  00000+0  95693-4 0  9995
2 20580  28.4722 242.1156 0002181 113.0880 246.9946 15.31066695793029
POLAR                   
1 23802U 96013A   26195.76553022  .00000202  00000+0  00000+0 0  9999
2 23802  79.8911 226.7248 6498087 208.1291  91.6735  1.29846068145216
SWAS                    
1 25560U 98071A   26197.16902302  .00001503  00000+0  99449-4 0  9998
2 25560  69.8942 152.7719 0007881 229.6389 130.4088 15.09750225501649
CXO                     
1 25867U 99040B   26198.46886808  .00000598  00000+0  00000+0 0  9994
2 25867  56.6226 115.7943 7787022 310.0504   0.5333  0.37805709 17431
XMM-NEWTON              
1 25989U 99066A   26199.26509818 -.00000005  00000+0  00000+0 0  9993
2 25989  64.3180 282.5861 4665036  64.3602 359.9798  0.50127855 23154
TERRA                   
1 25994U 99068A   26197.25997314  .00000172  00000+0  44041-4 0  9992
2 25994  97.9441 245.6512 0003458 120.5405 304.2363 14.61124158413852
CLUSTER II-FM7 (SAMBA)  
1 26410U 00041A   26197.13957185  .00051232 -58450-4  00000+0 0  9991
2 26410 149.8273  56.2567 9088690 273.7641 359.2168  0.44844033 20444
CLUSTER II-FM8 (TANGO)  
1 26464U 00045B   26195.45105720  .00019821  00000+0  00000+0 0  9997
2 26464 150.0388  57.1141 9091450 274.4530   1.9888  0.44420278 20435
ODIN                    
1 26702U 01007A   26197.12452033  .00271731  29034-4  91398-3 0  9996
2 26702  97.3718 240.1907 0005116 154.6659 205.4866 15.90027591393977
TIMED                   
1 26998U 01055B   26197.11129768  .00000546  00000+0  53091-4 0  9991
2 26998  74.0666 176.7773 0002254 299.7159  60.3801 14.95345646335149
CORIOLIS                
1 27640U 03001A   26197.29917745  .00000031  00000+0  35061-4 0  9994
2 27640  98.7135 203.7401 0014952 126.1651 234.0912 14.19952010218356
SORCE                   
1 27651U 03004A   26197.16097906  .00001256  00000+0  10030-3 0  9991
2 27651  39.9912  96.3508 0018752 260.9302  98.9370 15.03844345276268
MOST                    
1 27843U 03031D   26197.00351617  .00000010  00000+0  24808-4 0  9995
2 27843  98.7053 204.3279 0010130 162.7882 197.3640 14.21327808194802
SCISAT 1                
1 27858U 03036A   26197.19553693  .00000256  00000+0  37370-4 0  9994
2 27858  73.9301 113.7073 0007319 181.5592 178.5563 14.81479508235741
SWIFT                   
1 28485U 04047A   26196.46571655  .00041696  00000+0  30635-3 0  9990
2 28485  20.5527 326.3099 0002205  28.4870 331.5697 15.71188268191316
HINODE (SOLAR-B)        
1 29479U 06041A   26197.00481165  .00000279  00000+0  56318-4 0  9996
2 29479  98.0548 212.7325 0017092 191.8472 168.2333 14.68658799 59104
SHIJIAN-6 02A (SJ-6 02A)
1 29505U 06046A   26197.31041866  .00001717  00000+0  89758-4 0  9997
2 29505  97.6342 238.5987 0004227  60.4991 299.6663 15.17251629 76687
SHIJIAN-6 02B (SJ-6 02B)
1 29506U 06046B   26197.27046957  .00000349  00000+0  31690-4 0  9991
2 29506  97.7141 226.1488 0013307 332.5887  27.4634 15.01438546 75100
FGRST (GLAST)           
1 33053U 08029A   26197.16869564  .00001913  00000+0  63099-4 0  9997
2 33053  25.5830   3.2274 0007804 311.3181  48.6686 15.24079654   117
SDO                     
1 36395U 10005A   26196.34409457 -.00000103  00000+0  00000+0 0  9995
2 36395  34.7081  85.9138 0001835  46.0485 182.8654  1.00277108 60342
CRYOSAT 2               
1 36508U 10013A   26197.23474740  .00000115  00000+0  27862-4 0  9998
2 36508  92.0359 284.3633 0002405  98.6739 261.4741 14.51898626862296
X-SAT                   
1 37389U 11015C   26197.22026403 -.00000033  00000+0  34708-5 0  9995
2 37389  98.3524 172.8636 0012714 257.6502 102.3255 14.25213703791810
GCOM-W1 (SHIZUKU)       
1 38337U 12025A   26197.30485427  .00000188  00000+0  51799-4 0  9993
2 38337  98.2024 137.4202 0001298  78.0768  82.9108 14.57090657753272
NUSTAR                  
1 38358U 12031A   26197.33336806  .00012214  00000+0  69459-3 0  9996
2 38358   6.0252 175.4534 0008396 189.8617 258.6879 15.09041339  1303
NEOSSAT                 
1 39089U 13009D   26197.05965214  .00000047  00000+0  30876-4 0  9997
2 39089  98.4191  16.4076 0011496 154.7622 205.4128 14.35835852700884
BRITE-AUSTRIA           
1 39091U 13009F   26197.04390101  .00000070  00000+0  38472-4 0  9992
2 39091  98.4009  15.7674 0010809 148.2512 211.9329 14.36552721701196
IRIS                    
1 39197U 13033A   26197.12102833  .00000501  00000+0  63540-4 0  9991
2 39197  97.9319  36.3068 0023387 221.8071 138.1358 14.85937879704673
HISAKI (SPRINT-A)       
1 39253U 13049A   26197.07233904  .00000089  00000+0  29667-4 0  9992
2 39253  29.7214  73.1528 0136983 250.9921 107.5765 13.55546795635345
CASSIOPE                
1 39265U 13055A   26197.26593614  .00016995 -54648-6  18174-3 0  9998
2 39265  80.9127  31.3350 0282713 324.2424  34.0157 15.27458637672107
STSAT-3                 
1 39422U 13066G   26197.27601833  .00001777  00000+0  13692-3 0  9996
2 39422  97.6191 166.6950 0008898 301.1879  58.8474 15.02890087688570
